NORAD_CAT_ID,OBJECT_NAME,OBJECT_TYPE,EPOCH,MEAN_MOTION,ECCENTRICITY,INCLINATION,RA_OF_ASC_NODE,ARG_OF_PERICENTER,MEAN_ANOMALY,BSTAR,MEAN_MOTION_DOT,MEAN_MOTION_DDOT,TLE_LINE0,TLE_LINE1,TLE_LINE2,SEMIMAJOR_AXIS,PERIOD,APOGEE,PERIGEE,DECAYED
56784.0,STARLINK-6354,PAYLOAD,2023-06-06 16:00:03,15.90966615,0.0026774,70.0055,35.8124,161.9328,100.2989,-0.0032224,-0.01047498,0.0003259,0 STARLINK-6354,1 56784U 23078T   23157.66670139 -.01047498  32590-3 -32224-2 0  9998,2 56784  70.0055  35.8124 0026774 161.9328 100.2989 15.90966615  1309,6677.714,90.511,317.458,281.7,0.0
56784.0,STARLINK-6354,PAYLOAD,2023-06-06 22:00:00,15.90421339,0.0024116,70.0053,35.0878,162.3605,90.94,-0.0030565,-0.00960691,0.00027622,0 STARLINK-6354,1 56784U 23078T   23157.91667824 -.00960691  27622-3 -30565-2 0  9997,2 56784  70.0053  35.0878 0024116 162.3605  90.9400 15.90421339  1308,6679.24,90.542,317.213,284.997,0.0
56784.0,STARLINK-6354,PAYLOAD,2023-06-07 01:28:04,15.9039881,0.0025463,70.0051,34.6695,161.2225,198.9927,-0.0010214,-0.0032341,3.7655e-05,0 STARLINK-6354,1 56784U 23078T   23158.06116153 -.00323410  37655-4 -10214-2 0  9997,2 56784  70.0051  34.6695 0025463 161.2225 198.9927 15.90398810  1108,6679.303,90.543,318.176,284.161,0.0
56784.0,STARLINK-6354,PAYLOAD,2023-06-07 12:00:00,15.8929127,0.0018971,70.0047,33.3988,164.8339,186.1534,-0.0032781,-0.00963143,0.00027447,0 STARLINK-6354,1 56784U 23078T   23158.50001157 -.00963143  27447-3 -32781-2 0  9996,2 56784  70.0047  33.3988 0018971 164.8339 186.1534 15.89291270  1434,6682.406,90.606,316.948,291.594,0.0
56784.0,STARLINK-6354,PAYLOAD,2023-06-07 20:00:01,15.88641667,0.0015792,70.0047,32.4351,166.2357,290.9413,-0.0035008,-0.00990566,0.0002873,0 STARLINK-6354,1 56784U 23078T   23158.83334491 -.00990566  28730-3 -35008-2 0  9992,2 56784  70.0047  32.4351 0015792 166.2357 290.9413 15.88641667  1485,6684.227,90.643,316.648,295.537,0.0
56784.0,STARLINK-6354,PAYLOAD,2023-06-07 22:00:00,15.88453102,0.0015093,70.0044,32.1943,166.4308,47.1757,-0.0033416,-0.00936158,0.00025829,0 STARLINK-6354,1 56784U 23078T   23158.91667824 -.00936158  25829-3 -33416-2 0  9994,2 56784  70.0044  32.1943 0015093 166.4308  47.1757 15.88453102  1307,6684.756,90.654,316.711,296.532,0.0
56784.0,STARLINK-6354,PAYLOAD,2023-06-08 04:00:00,15.8800504,0.0012759,70.0038,31.4721,168.6241,33.9409,-0.0037036,-0.0101135,0.00029674,0 STARLINK-6354,1 56784U 23078T   23159.16667824 -.01011350  29674-3 -37036-2 0  9995,2 56784  70.0038  31.4721 0012759 168.6241  33.9409 15.88005040  1538,6686.014,90.68,316.409,299.348,0.0
56784.0,STARLINK-6354,PAYLOAD,2023-06-08 12:00:00,15.87338954,0.0010344,70.0041,30.51,174.4925,132.6885,-0.0036822,-0.00884968,0.0,0 STARLINK-6354,1 56784U 23078T   23159.50001157 -.00884968  00000-0 -36822-2 0  9997,2 56784  70.0041  30.5100 0010344 174.4925 132.6885 15.87338954  1598,6687.884,90.718,316.667,302.831,0.0
56784.0,STARLINK-6354,PAYLOAD,2023-06-08 12:13:23,15.875553,0.0010403,70.0048,30.4828,172.9765,187.1588,-0.00038981,-0.00103246,0.0,0 STARLINK-6354,1 56784U 23078T   23159.50929610 -.00103246  00000-0 -38981-3 0  9992,2 56784  70.0048  30.4828 0010403 172.9765 187.1588 15.87555300  1335,6687.276,90.706,316.098,302.185,0.0
56784.0,STARLINK-6354,PAYLOAD,2023-06-08 20:00:01,15.86697806,0.0007337,70.0044,29.5489,182.7504,228.3364,-0.0039885,-0.00921794,0.0,0 STARLINK-6354,1 56784U 23078T   23159.83335648 -.00921794  00000-0 -39885-2 0  9999,2 56784  70.0044  29.5489 0007337 182.7504 228.3364 15.86697806  1646,6689.685,90.755,316.459,306.642,0.0
56784.0,STARLINK-6354,PAYLOAD,2023-06-08 22:00:00,15.86492801,0.0006611,70.0042,29.3088,184.378,342.4912,-0.0036714,-0.00846528,0.0,0 STARLINK-6354,1 56784U 23078T   23159.91667824 -.00846528  00000-0 -36714-2 0  9991,2 56784  70.0042  29.3088 0006611 184.3780 342.4912 15.86492801  1303,6690.262,90.766,316.55,307.704,0.0
56784.0,STARLINK-6354,PAYLOAD,2023-06-09 04:00:00,15.86054034,0.0004638,70.0044,28.5885,200.2645,313.8007,-0.0041422,-0.00925033,0.0,0 STARLINK-6354,1 56784U 23078T   23160.16667824 -.00925033  00000-0 -41422-2 0  9991,2 56784  70.0044  28.5885 0004638 200.2645 313.8007 15.86054034  1697,6691.495,90.791,316.464,310.257,0.0
56784.0,STARLINK-6354,PAYLOAD,2023-06-09 12:00:02,15.85377812,0.0003751,70.0048,27.6294,229.8339,26.5701,-0.0040306,-0.00875362,0.0,0 STARLINK-6354,1 56784U 23078T   23160.50002315 -.00875362  00000-0 -40306-2 0  9996,2 56784  70.0048  27.6294 0003751 229.8339  26.5701 15.85377812  1743,6693.398,90.83,317.774,312.752,0.0
56784.0,STARLINK-6354,PAYLOAD,2023-06-09 13:57:04,15.85515813,0.0005268,70.0049,27.3955,191.6891,168.4192,-0.00041042,-0.00098124,0.0,0 STARLINK-6354,1 56784U 23078T   23160.58130278 -.00098124  00000-0 -41042-3 0  9996,2 56784  70.0049  27.3955 0005268 191.6891 168.4192 15.85515813  1508,6693.01,90.822,318.401,311.349,0.0
56784.0,STARLINK-6354,PAYLOAD,2023-06-09 20:00:01,15.84732929,0.0003489,70.0055,26.6712,262.5845,95.245,-0.0043196,-0.00906002,0.0,0 STARLINK-6354,1 56784U 23078T   23160.83334491 -.00906002  00000-0 -43196-2 0  9991,2 56784  70.0055  26.6712 0003489 262.5845  95.2450 15.84732929  1803,6695.214,90.867,319.415,314.743,0.0
56784.0,STARLINK-6354,PAYLOAD,2023-06-09 22:00:00,15.84563425,0.0003335,70.0054,26.4318,269.8132,203.2646,-0.0042438,-0.00884927,0.0,0 STARLINK-6354,1 56784U 23078T   23160.91667824 -.00884927  00000-0 -42438-2 0  9998,2 56784  70.0054  26.4318 0003335 269.8132 203.2646 15.84563425  1307,6695.691,90.877,319.789,315.323,0.0
56784.0,STARLINK-6354,PAYLOAD,2023-06-10 04:00:01,15.84110381,0.0003485,70.0052,25.7137,274.9879,183.6014,-0.0046552,-0.00943528,0.0,0 STARLINK-6354,1 56784U 23078T   23161.16668981 -.00943528  00000-0 -46552-2 0  9995,2 56784  70.0052  25.7137 0003485 274.9879 183.6014 15.84110381  1856,6696.968,90.903,321.167,316.499,0.0
56784.0,STARLINK-6354,PAYLOAD,2023-06-10 12:00:02,15.83416563,0.0003517,70.0051,24.7576,266.5669,291.9558,-0.0043763,-0.00865883,0.0,0 STARLINK-6354,1 56784U 23078T   23161.50002315 -.00865883  00000-0 -43763-2 0  9994,2 56784  70.0051  24.7576 0003517 266.5669 291.9558 15.83416563  1903,6698.924,90.943,323.145,318.433,0.0
56784.0,STARLINK-6354,PAYLOAD,2023-06-10 14:00:01,15.83287402,0.0003679,70.0054,24.5187,266.6878,46.616,-0.0046985,-0.00918451,0.0,0 STARLINK-6354,1 56784U 23078T   23161.58334491 -.00918451  00000-0 -46985-2 0  9994,2 56784  70.0054  24.5187 0003679 266.6878  46.6160 15.83287402  1300,6699.288,90.95,323.618,318.689,0.0
56784.0,STARLINK-6354,PAYLOAD,2023-06-10 20:00:01,15.82775256,0.0003755,70.0051,23.8023,270.0142,27.5892,-0.0047466,-0.0090689,0.0,0 STARLINK-6354,1 56784U 23078T   23161.83334491 -.00906890  00000-0 -47466-2 0  9991,2 56784  70.0051  23.8023 0003755 270.0142  27.5892 15.82775256  1966,6700.733,90.979,325.115,320.082,0.0
56784.0,STARLINK-6354,PAYLOAD,2023-06-10 22:00:00,15.82602202,0.0003778,70.005,23.5636,273.7105,138.5553,-0.0046477,-0.00883209,0.0,0 STARLINK-6354,1 56784U 23078T   23161.91667824 -.00883209  00000-0 -46477-2 0  9998,2 56784  70.0050  23.5636 0003778 273.7105 138.5553 15.82602202  1301,6701.222,90.989,325.619,320.555,0.0
56784.0,STARLINK-6354,PAYLOAD,2023-06-11 14:00:01,15.81334147,0.0003705,70.0049,21.6557,264.8259,342.9638,-0.0051897,-0.00924824,0.0,0 STARLINK-6354,1 56784U 23078T   23162.58334491 -.00924824  00000-0 -51897-2 0  9994,2 56784  70.0049  21.6557 0003705 264.8259 342.9638 15.81334147  1305,6704.804,91.062,329.153,324.185,0.0
56784.0,STARLINK-6354,PAYLOAD,2023-06-11 20:00:01,15.80810941,0.0003737,70.005,20.9412,269.2519,321.0798,-0.0051282,-0.00895075,0.0,0 STARLINK-6354,1 56784U 23078T   23162.83334491 -.00895075  00000-0 -51282-2 0  9995,2 56784  70.0050  20.9412 0003737 269.2519 321.0798 15.80810941  2117,6706.283,91.092,330.654,325.642,0.0
56784.0,STARLINK-6354,PAYLOAD,2023-06-11 22:00:00,15.80635405,0.0003857,70.0051,20.7032,271.911,72.4966,-0.0049776,-0.00864873,0.0,0 STARLINK-6354,1 56784U 23078T   23162.91667824 -.00864873  00000-0 -49776-2 0  9990,2 56784  70.0051  20.7032 0003857 271.9110  72.4966 15.80635405  1308,6706.78,91.103,331.231,326.058,0.0
56784.0,STARLINK-6354,PAYLOAD,2023-06-12 12:00:00,15.79504541,0.0003656,70.0052,19.0388,268.3037,153.2601,-0.0052622,-0.0086767,0.0,0 STARLINK-6354,1 56784U 23078T   23163.50001157 -.00867670  00000-0 -52622-2 0  9999,2 56784  70.0052  19.0388 0003656 268.3037 153.2601 15.79504541  2229,6709.98,91.168,334.299,329.392,0.0
56784.0,STARLINK-6354,PAYLOAD,2023-06-12 20:00:01,15.78840675,0.000352,70.0054,18.0891,270.8348,245.1883,-0.0054592,-0.00872771,0.0,0 STARLINK-6354,1 56784U 23078T   23163.83334491 -.00872771  00000-0 -54592-2 0  9991,2 56784  70.0054  18.0891 0003520 270.8348 245.1883 15.78840675  2270,6711.861,91.206,336.089,331.364,0.0
56784.0,STARLINK-6354,PAYLOAD,2023-06-12 22:00:00,15.78671952,0.0003534,70.0054,17.8517,270.8512,358.6582,-0.0053571,-0.00852006,0.0,0 STARLINK-6354,1 56784U 23078T   23163.91667824 -.00852006  00000-0 -53571-2 0  9994,2 56784  70.0054  17.8517 0003534 270.8512 358.6582 15.78671952  1309,6712.339,91.216,336.577,331.832,0.0
56784.0,STARLINK-6354,PAYLOAD,2023-06-13 12:00:00,15.77559444,0.0003603,70.0049,16.192,265.2461,77.3061,-0.0058807,-0.0088604,0.0,0 STARLINK-6354,1 56784U 23078T   23164.50001157 -.00886040  00000-0 -58807-2 0  9993,2 56784  70.0049  16.1920 0003603 265.2461  77.3061 15.77559444  2387,6715.495,91.28,339.779,334.94,0.0
56784.0,STARLINK-6354,PAYLOAD,2023-06-13 14:00:01,15.7743075,0.0003464,70.0051,15.9551,266.5282,189.1121,-0.00634,-0.0094322,0.0,0 STARLINK-6354,1 56784U 23078T   23164.58334491 -.00943220  00000-0 -63400-2 0  9990,2 56784  70.0051  15.9551 0003464 266.5282 189.1121 15.77430750  1305,6715.86,91.288,340.051,335.399,0.0
56784.0,STARLINK-6354,PAYLOAD,2023-06-13 18:00:00,15.77076951,0.0003575,70.0049,15.4815,267.0242,54.6835,-0.0062639,-0.00919902,0.0,0 STARLINK-6354,1 56784U 23078T   23164.75001157 -.00919902  00000-0 -62639-2 0  9992,2 56784  70.0049  15.4815 0003575 267.0242  54.6835 15.77076951  2426,6716.864,91.308,341.131,336.328,0.0
